start=new Date('2021-12-19T00:00:00.000Z').valueOf();
sats=[{"MEAN_ANOMALY":"115.1776","RA_OF_ASC_NODE":"204.9043","NORAD_CAT_ID":"44728","BSTAR":"0.00329330000000","FILE":"3243699","OBJECT_ID":"2019-074R","TIME_SYSTEM":"UTC","TLE_LINE2":"2 44728  53.0427 204.9043 0006229 257.2374 115.1776 16.09976820117419","PERIAPSIS":"242.782","SEMIMAJOR_AXIS":"6625.044","OBJECT_TYPE":"PAYLOAD","CLASSIFICATION_TYPE":"U","TLE_LINE1":"1 44728U 19074R   21352.86719766  .02705084  10384-1  32933-2 0  9994","OBJECT_NAME":"STARLINK-1023","SITE":"AFETR","CENTER_NAME":"EARTH","EPOCH":"2021-12-18T20:48:45.877824","REV_AT_EPOCH":"11741","REF_FRAME":"TEME","MEAN_MOTION":"16.09976820","GP_ID":"191944892","LAUNCH_DATE":"2019-11-11","RCS_SIZE":"LARGE","ELEMENT_SET_NO":"999","ECCENTRICITY":"0.00062290","PERIOD":"89.442","MEAN_ELEMENT_THEORY":"SGP4","ARG_OF_PERICENTER":"257.2374","EPHEMERIS_TYPE":"0","MEAN_MOTION_DOT":"0.02705084","APOAPSIS":"251.036","DECAY_DATE":null,"INCLINATION":"53.0427","MEAN_MOTION_DDOT":"0.0103840000000","COUNTRY_CODE":"US"},{"DECAY_DATE":null,"INCLINATION":"53.0012","MEAN_MOTION_DDOT":"0.0000000000000","COUNTRY_CODE":"US","ECCENTRICITY":"0.00025330","PERIOD":"95.460","MEAN_ELEMENT_THEORY":"SGP4","ARG_OF_PERICENTER":"72.3750","EPHEMERIS_TYPE":"0","MEAN_MOTION_DOT":"0.00009096","APOAPSIS":"542.584","SITE":"AFETR","CENTER_NAME":"EARTH","REF_FRAME":"TEME","EPOCH":"2021-12-18T17:58:25.269312","REV_AT_EPOCH":"11626","MEAN_MOTION":"15.08484831","GP_ID":"191946624","LAUNCH_DATE":"2019-11-11","RCS_SIZE":"LARGE","ELEMENT_SET_NO":"999","MEAN_ANOMALY":"287.7516","RA_OF_ASC_NODE":"284.7050","NORAD_CAT_ID":"44729","BSTAR":"0.00059449000000","FILE":"3243773","OBJECT_ID":"2019-074S","TIME_SYSTEM":"UTC","PERIAPSIS":"539.079","TLE_LINE2":"2 44729  53.0012 284.7050 0002533  72.3750 287.7516 15.08484831116266","OBJECT_TYPE":"PAYLOAD","SEMIMAJOR_AXIS":"6918.966","CLASSIFICATION_TYPE":"U","TLE_LINE1":"1 44729U 19074S   21352.74890358  .00009096  00000-0  59449-3 0  9992","OBJECT_NAME":"STARLINK-1024"},{"INCLINATION":"53.0537","DECAY_DATE":null,"MEAN_MOTION_DDOT":"0.0000000000000","COUNTRY_CODE":"US","PERIOD":"95.592","MEAN_ELEMENT_THEORY":"SGP4","ARG_OF_PERICENTER":"62.4563","ECCENTRICITY":"0.00025550","EPHEMERIS_TYPE":"0","MEAN_MOTION_DOT":"-0.00000562","APOAPSIS":"548.981","CENTER_NAME":"EARTH","EPOCH":"2021-12-18T18:49:31.253664","REF_FRAME":"TEME","REV_AT_EPOCH":"11651","MEAN_MOTION":"15.06400759","SITE":"AFETR","LAUNCH_DATE":"2019-11-11","ELEMENT_SET_NO":"999","RCS_SIZE":"LARGE","GP_ID":"191946621","BSTAR":"-0.00001881700000","FILE":"3243773","OBJECT_ID":"2019-074U","MEAN_ANOMALY":"297.6685","NORAD_CAT_ID":"44731","RA_OF_ASC_NODE":"268.4997","OBJECT_NAME":"STARLINK-1026","TLE_LINE1":"1 44731U 19074U   21352.78438951 -.00000562  00000-0 -18817-4 0  9992","TIME_SYSTEM":"UTC","TLE_LINE2":"2 44731  53.0537 268.4997 0002555  62.4563 297.6685 15.06400759116516","PERIAPSIS":"545.442","OBJECT_TYPE":"PAYLOAD","CLASSIFICATION_TYPE":"U","SEMIMAJOR_AXIS":"6925.346"},{"COUNTRY_CODE":"US","MEAN_MOTION_DDOT":"0.0000000000000","INCLINATION":"53.0554","DECAY_DATE":null,"APOAPSIS":"548.737","MEAN_MOTION_DOT":"-0.00001292","EPHEMERIS_TYPE":"0","ARG_OF_PERICENTER":"66.2783","MEAN_ELEMENT_THEORY":"SGP4","PERIOD":"95.592","ECCENTRICITY":"0.00021860","RCS_SIZE":"LARGE","ELEMENT_SET_NO":"999","LAUNCH_DATE":"2019-11-11","GP_ID":"191941072","MEAN_MOTION":"15.06396831","EPOCH":"2021-12-18T05:46:37.856352","REF_FRAME":"TEME","REV_AT_EPOCH":"11598","CENTER_NAME":"EARTH","SITE":"AFETR","TLE_LINE1":"1 44732U 19074V   21352.24071593 -.00001292  00000-0 -67806-4 0  9992","OBJECT_NAME":"STARLINK-1027","SEMIMAJOR_AXIS":"6925.358","OBJECT_TYPE":"PAYLOAD","CLASSIFICATION_TYPE":"U","TLE_LINE2":"2 44732  53.0554 290.9429 0002186  66.2783 293.8436 15.06396831115989","PERIAPSIS":"545.709","TIME_SYSTEM":"UTC","BSTAR":"-0.00006780600000","FILE":"3243681","OBJECT_ID":"2019-074V","NORAD_CAT_ID":"44732","RA_OF_ASC_NODE":"290.9429","MEAN_ANOMALY":"293.8436"},{"MEAN_MOTION_DOT":"0.00000895","EPHEMERIS_TYPE":"0","APOAPSIS":"548.848","MEAN_ELEMENT_THEORY":"SGP4","PERIOD":"95.592","ARG_OF_PERICENTER":"59.9380","ECCENTRICITY":"0.00024030","MEAN_MOTION_DDOT":"0.0000000000000","COUNTRY_CODE":"US","INCLINATION":"53.0553","DECAY_DATE":null,"OBJECT_NAME":"STARLINK-1028","TLE_LINE1":"1 44733U 19074W   21352.30520682  .00000895  00000-0  78973-4 0  9991","TLE_LINE2":"2 44733  53.0553 270.6589 0002403  59.9380 300.1847 15.06409736116275","PERIAPSIS":"545.520","TIME_SYSTEM":"UTC","OBJECT_TYPE":"PAYLOAD","CLASSIFICATION_TYPE":"U","SEMIMAJOR_AXIS":"6925.319","BSTAR":"0.00007897300000","FILE":"3243681","OBJECT_ID":"2019-074W","MEAN_ANOMALY":"300.1847","RA_OF_ASC_NODE":"270.6589","NORAD_CAT_ID":"44733","ELEMENT_SET_NO":"999","RCS_SIZE":"LARGE","LAUNCH_DATE":"2019-11-11","GP_ID":"191939820","CENTER_NAME":"EARTH","MEAN_MOTION":"15.06409736","EPOCH":"2021-12-18T07:19:29.869248","REV_AT_EPOCH":"11627","REF_FRAME":"TEME","SITE":"AFETR"},{"SITE":"AFETR","MEAN_MOTION":"15.06397169","REV_AT_EPOCH":"11740","EPOCH":"2021-12-18T12:27:22.507200","REF_FRAME":"TEME","CENTER_NAME":"EARTH","GP_ID":"191940070","ELEMENT_SET_NO":"999","RCS_SIZE":"LARGE","LAUNCH_DATE":"2019-11-11","NORAD_CAT_ID":"44734","RA_OF_ASC_NODE":"189.6760","MEAN_ANOMALY":"279.8729","FILE":"3243681","BSTAR":"-0.00004112100000","OBJECT_ID":"2019-074X","OBJECT_TYPE":"PAYLOAD","CLASSIFICATION_TYPE":"U","SEMIMAJOR_AXIS":"6925.357","PERIAPSIS":"545.515","TLE_LINE2":"2 44734  53.0551 189.6760 0002465  80.2538 279.8729 15.06397169117407","TIME_SYSTEM":"UTC","OBJECT_NAME":"STARLINK-1029","TLE_LINE1":"1 44734U 19074X   21352.51901050 -.00000894  00000-0 -41121-4 0  9993","DECAY_DATE":null,"INCLINATION":"53.0551","COUNTRY_CODE":"US","MEAN_MOTION_DDOT":"0.0000000000000","ECCENTRICITY":"0.00024650","ARG_OF_PERICENTER":"80.2538","MEAN_ELEMENT_THEORY":"SGP4","PERIOD":"95.592","APOAPSIS":"548.929","MEAN_MOTION_DOT":"-0.00000894","EPHEMERIS_TYPE":"0"},{"TLE_LINE1":"1 44735U 19074Y   21352.77886522 -.00001025  00000-0 -49899-4 0  9995","OBJECT_NAME":"STARLINK-1030","TIME_SYSTEM":"UTC","PERIAPSIS":"545.673","TLE_LINE2":"2 44735  53.0537 288.5345 0002241  63.0178 297.1040 15.06396170116231","CLASSIFICATION_TYPE":"U","OBJECT_TYPE":"PAYLOAD","SEMIMAJOR_AXIS":"6925.360","FILE":"3243773","BSTAR":"-0.00004989900000","OBJECT_ID":"2019-074Y","MEAN_ANOMALY":"297.1040","NORAD_CAT_ID":"44735","RA_OF_ASC_NODE":"288.5345","LAUNCH_DATE":"2019-11-11","RCS_SIZE":"LARGE","ELEMENT_SET_NO":"999","GP_ID":"191946749","CENTER_NAME":"EARTH","REF_FRAME":"TEME","EPOCH":"2021-12-18T18:41:33.955008","REV_AT_EPOCH":"11623","MEAN_MOTION":"15.06396170","SITE":"AFETR","EPHEMERIS_TYPE":"0","MEAN_MOTION_DOT":"-0.00001025","APOAPSIS":"548.777","PERIOD":"95.592","MEAN_ELEMENT_THEORY":"SGP4","ARG_OF_PERICENTER":"63.0178","ECCENTRICITY":"0.00022410","MEAN_MOTION_DDOT":"0.0000000000000","COUNTRY_CODE":"US","INCLINATION":"53.0537","DECAY_DATE":null},{"INCLINATION":"53.0557","DECAY_DATE":null,"MEAN_MOTION_DDOT":"0.0000000000000","COUNTRY_CODE":"US","MEAN_ELEMENT_THEORY":"SGP4","PERIOD":"95.592","ARG_OF_PERICENTER":"65.0861","ECCENTRICITY":"0.00020230","MEAN_MOTION_DOT":"-0.00001149","EPHEMERIS_TYPE":"0","APOAPSIS":"548.631","CENTER_NAME":"EARTH","MEAN_MOTION":"15.06394492","EPOCH":"2021-12-18T06:18:28.744416","REV_AT_EPOCH":"11599","REF_FRAME":"TEME","SITE":"AFETR","RCS_SIZE":"LARGE","ELEMENT_SET_NO":"999","LAUNCH_DATE":"2019-11-11","GP_ID":"191940573","FILE":"3243681","BSTAR":"-0.00005827000000","OBJECT_ID":"2019-074Z","MEAN_ANOMALY":"295.0338","RA_OF_ASC_NODE":"290.8502","NORAD_CAT_ID":"44736","TLE_LINE1":"1 44736U 19074Z   21352.26283269 -.00001149  00000-0 -58270-4 0  9999","OBJECT_NAME":"STARLINK-1031","TLE_LINE2":"2 44736  53.0557 290.8502 0002023  65.0861 295.0338 15.06394492115998","PERIAPSIS":"545.829","TIME_SYSTEM":"UTC","SEMIMAJOR_AXIS":"6925.365","OBJECT_TYPE":"PAYLOAD","CLASSIFICATION_TYPE":"U"},{"COUNTRY_CODE":"US","MEAN_MOTION_DDOT":"0.0000000000000","DECAY_DATE":null,"INCLINATION":"53.0562","APOAPSIS":"548.411","MEAN_MOTION_DOT":"0.00000258","EPHEMERIS_TYPE":"0","ECCENTRICITY":"0.00017040","ARG_OF_PERICENTER":"54.2601","MEAN_ELEMENT_THEORY":"SGP4","PERIOD":"95.592","GP_ID":"191946619","ELEMENT_SET_NO":"999","RCS_SIZE":"LARGE","LAUNCH_DATE":"2019-11-11","SITE":"AFETR","MEAN_MOTION":"15.06394474","REV_AT_EPOCH":"11624","EPOCH":"2021-12-18T19:18:43.714368","REF_FRAME":"TEME","CENTER_NAME":"EARTH","SEMIMAJOR_AXIS":"6925.365","OBJECT_TYPE":"PAYLOAD","CLASSIFICATION_TYPE":"U","PERIAPSIS":"546.050","TLE_LINE2":"2 44737  53.0562 288.4203 0001704  54.2601 305.8546 15.06394474116243","TIME_SYSTEM":"UTC","TLE_LINE1":"1 44737U 19074AA  21352.80467262  .00000258  00000-0  36236-4 0  9993","OBJECT_NAME":"STARLINK-1032","RA_OF_ASC_NODE":"288.4203","NORAD_CAT_ID":"44737","MEAN_ANOMALY":"305.8546","BSTAR":"0.00003623600000","FILE":"3243773","OBJECT_ID":"2019-074AA"},{"GP_ID":"191939571","LAUNCH_DATE":"2019-11-11","ELEMENT_SET_NO":"999","RCS_SIZE":"LARGE","SITE":"AFETR","CENTER_NAME":"EARTH","REV_AT_EPOCH":"11602","EPOCH":"2021-12-18T12:35:19.352256","REF_FRAME":"TEME","MEAN_MOTION":"15.06397851","TIME_SYSTEM":"UTC","PERIAPSIS":"545.665","TLE_LINE2":"2 44738  53.0543 289.6567 0002246  66.9753 293.1473 15.06397851116025","OBJECT_TYPE":"PAYLOAD","CLASSIFICATION_TYPE":"U","SEMIMAJOR_AXIS":"6925.355","OBJECT_NAME":"STARLINK-1033","TLE_LINE1":"1 44738U 19074AB  21352.52452954 -.00001027  00000-0 -50038-4 0  9998","MEAN_ANOMALY":"293.1473","RA_OF_ASC_NODE":"289.6567","NORAD_CAT_ID":"44738","OBJECT_ID":"2019-074AB","FILE":"3243681","BSTAR":"-0.00005003800000","MEAN_MOTION_DDOT":"0.0000000000000","COUNTRY_CODE":"US","DECAY_DATE":null,"INCLINATION":"53.0543","EPHEMERIS_TYPE":"0","MEAN_MOTION_DOT":"-0.00001027","APOAPSIS":"548.776","ECCENTRICITY":"0.00022460","PERIOD":"95.592","MEAN_ELEMENT_THEORY":"SGP4","ARG_OF_PERICENTER":"66.9753"}];
